$$SOE
2460728.500000000, A.D. 2025-Feb-22 00:00:00.0000, 2.233418434369428E+08, 2.333085219638118E+08, -7.297162778912082E+06,
2460735.500000000, A.D. 2025-Mar-01 00:00:00.0000, 2.146434189957776E+08, 2.423515391978901E+08, -7.456503570568636E+06,
2460742.500000000, A.D. 2025-Mar-08 00:00:00.0000, 2.056381326207413E+08, 2.510482218072887E+08, -7.605185670549452E+06,
2460749.500000000, A.D. 2025-Mar-15 00:00:00.0000, 1.963409831209422E+08, 2.593887383093143E+08, -7.743075278264552E+06,
2460756.500000000, A.D. 2025-Mar-22 00:00:00.0000, 1.867672228756964E+08, 2.673639798062119E+08, -7.870057777677342E+06,
2460763.500000000, A.D. 2025-Mar-29 00:00:00.0000, 1.769323181274706E+08, 2.749655574769985E+08, -7.986037509300783E+06,
2460770.500000000, A.D. 2025-Apr-05 00:00:00.0000, 1.668519120414755E+08, 2.821857987084174E+08, -8.090937577902257E+06,
2460777.500000000, A.D. 2025-Apr-12 00:00:00.0000, 1.565417887272877E+08, 2.890177421154389E+08, -8.184699515453547E+06,
2460784.500000000, A.D. 2025-Apr-19 00:00:00.0000, 1.460178381405738E+08, 2.954551307258306E+08, -8.267282858730540E+06,
2460791.500000000, A.D. 2025-Apr-26 00:00:00.0000, 1.352960222265988E+08, 3.014924032849671E+08, -8.338664687780246E+06,
2460798.500000000, A.D. 2025-May-03 00:00:00.0000, 1.243923424928257E+08, 3.071246838597353E+08, -8.398839138751000E+06,
2460805.500000000, A.D. 2025-May-10 00:00:00.0000, 1.133228090967655E+08, 3.123477699088747E+08, -8.447816897453830E+06,
2460812.500000000, A.D. 2025-May-17 00:00:00.0000, 1.021034115280987E+08, 3.171581189351545E+08, -8.485624684590548E+06,
2460819.500000000, A.D. 2025-May-24 00:00:00.0000, 9.075009108678219E+07, 3.215528338182733E+08, -8.512304756989911E+06,
2460826.500000000, A.D. 2025-May-31 00:00:00.0000, 7.927871558960120E+07, 3.255296472901767E+08, -8.527914441549778E+06,
2460833.500000000, A.D. 2025-Jun-07 00:00:00.0000, 6.770505590984827E+07, 3.290869069046649E+08, -8.532525570769057E+06,
2460840.500000000, A.D. 2025-Jun-14 00:00:00.0000, 5.604476198177217E+07, 3.322235599662620E+08, -8.526223661052004E+06,
2460847.500000000, A.D. 2025-Jun-21 00:00:00.0000, 4.431333946200355E+07, 3.349391352695521E+08, -8.509107214198723E+06,
2460854.500000000, A.D. 2025-Jun-28 00:00:00.0000, 3.252613014646839E+07, 3.372337235475405E+08, -8.481287287675470E+06,
2460861.500000000, A.D. 2025-Jul-05 00:00:00.0000, 2.069829459829412E+07, 3.391079589057230E+08, -8.442887021967277E+06,
2460868.500000000, A.D. 2025-Jul-12 00:00:00.0000, 8.844795756028168E+06, 3.405630005405747E+08, -8.394041083674490E+06,
2460875.500000000, A.D. 2025-Jul-19 00:00:00.0000, -3.019616335849889E+06, 3.416005142665094E+08, -8.334895090438560E+06,
2460882.500000000, A.D. 2025-Jul-26 00:00:00.0000, -1.488041851569767E+07, 3.422226538877844E+08, -8.265605043262869E+06,
2460889.500000000, A.D. 2025-Aug-02 00:00:00.0000, -2.672332720235914E+07, 3.424320425224122E+08, -8.186336771982074E+06,
2460896.500000000, A.D. 2025-Aug-09 00:00:00.0000, -3.853430983634367E+07, 3.422317539412082E+08, -8.097265398517966E+06,
2460903.500000000, A.D. 2025-Aug-16 00:00:00.0000, -5.029959504815706E+07, 3.416252939291703E+08, -7.998574831226885E+06,
2460910.500000000, A.D. 2025-Aug-23 00:00:00.0000, -6.200568132369871E+07, 3.406165817492686E+08, -7.890457316723406E+06,
2460917.500000000, A.D. 2025-Aug-30 00:00:00.0000, -7.363934390182170E+07, 3.392099324810479E+08, -7.773113021903425E+06,
2460924.500000000, A.D. 2025-Sep-06 00:00:00.0000, -8.518764138441393E+07, 3.374100412894667E+08, -7.646749435730681E+06,
2460931.500000000, A.D. 2025-Sep-13 00:00:00.0000, -9.663792378400411E+07, 3.352219671835274E+08, -7.511580641373128E+06,
2460938.500000000, A.D. 2025-Sep-20 00:00:00.0000, -1.079778387929140E+08, 3.326511146428193E+08, -7.367826892002076E+06,
2460945.500000000, A.D. 2025-Sep-27 00:00:00.0000, -1.191953352811672E+08, 3.297032162487620E+08, -7.215714332381025E+06,
2460952.500000000, A.D. 2025-Oct-04 00:00:00.0000, -1.302786661018029E+08, 3.263843168832659E+08, -7.055474637170270E+06,
2460959.500000000, A.D. 2025-Oct-11 00:00:00.0000, -1.412163906413184E+08, 3.227007585682710E+08, -6.887344608084112E+06,
2460966.500000000, A.D. 2025-Oct-18 00:00:00.0000, -1.519973768965103E+08, 3.186591656910533E+08, -6.711565778375104E+06,
2460973.500000000, A.D. 2025-Oct-25 00:00:00.0000, -1.626108029972089E+08, 3.142664306460867E+08, -6.528384037296519E+06,
2460980.500000000, A.D. 2025-Nov-01 00:00:00.0000, -1.730461581880993E+08, 3.095296999228085E+08, -6.338049277572617E+06,
2460987.500000000, A.D. 2025-Nov-08 00:00:00.0000, -1.832932432842976E+08, 3.044563606139341E+08, -6.140815071831807E+06,
2460994.500000000, A.D. 2025-Nov-15 00:00:00.0000, -1.933421705007251E+08, 2.990540272856895E+08, -5.936938396168932E+06,
2461001.500000000, A.D. 2025-Nov-22 00:00:00.0000, -2.031833622998019E+08, 2.933305294259700E+08, -5.726679419390798E+06,
2461008.500000000, A.D. 2025-Nov-29 00:00:00.0000, -2.128075494579114E+08, 2.872939005994568E+08, -5.510301250791356E+06,
2461015.500000000, A.D. 2025-Dec-06 00:00:00.0000, -2.222057706748216E+08, 2.809523691694639E+08, -5.288069448818311E+06,
2461022.500000000, A.D. 2025-Dec-13 00:00:00.0000, -2.313693733312108E+08, 2.743143472102325E+08, -5.060251605696768E+06,
2461029.500000000, A.D. 2025-Dec-20 00:00:00.0000, -2.402900119357840E+08, 2.673884186157153E+08, -4.827117243285969E+06,
2461036.500000000, A.D. 2025-Dec-27 00:00:00.0000, -2.489596453784969E+08, 2.601833289819130E+08, -4.588937709345832E+06,
2461043.500000000, A.D. 2026-Jan-03 00:00:00.0000, -2.573705344878856E+08, 2.527079766399021E+08, -4.345985990931690E+06,
2461050.500000000, A.D. 2026-Jan-10 00:00:00.0000, -2.655152398144004E+08, 2.449714041489545E+08, -4.098536509929061E+06,
2461057.500000000, A.D. 2026-Jan-17 00:00:00.0000, -2.733866194373413E+08, 2.369827901434544E+08, -3.846864928699508E+06,
2461064.500000000, A.D. 2026-Jan-24 00:00:00.0000, -2.809778267462866E+08, 2.287514415414885E+08, -3.591247970353678E+06,
2461071.500000000, A.D. 2026-Jan-31 00:00:00.0000, -2.882823081998876E+08, 2.202867860928657E+08, -3.331963255655587E+06,
2461078.500000000, A.D. 2026-Feb-07 00:00:00.0000, -2.952938010237671E+08, 2.115983651936448E+08, -3.069289166099593E+06,
2461085.500000000, A.D. 2026-Feb-14 00:00:00.0000, -3.020063306146371E+08, 2.026958269346738E+08, -2.803504756788015E+06,
2461092.500000000, A.D. 2026-Feb-21 00:00:00.0000, -3.084142072810856E+08, 1.935889199415227E+08, -2.534889706637591E+06,
2461099.500000000, A.D. 2026-Feb-28 00:00:00.0000, -3.145120234246153E+08, 1.842874891374899E+08, -2.263724111464255E+06,
2461106.500000000, A.D. 2026-Mar-07 00:00:00.0000, -3.202946532416757E+08, 1.748014714596554E+08, -1.990288090278342E+06,
2461113.500000000, A.D. 2026-Mar-14 00:00:00.0000, -3.257572521897583E+08, 1.651408891784241E+08, -1.714861649538897E+06,
2461120.500000000, A.D. 2026-Mar-21 00:00:00.0000, -3.308952544470930E+08, 1.553158436972652E+08, -1.437724730682313E+06,
2461127.500000000, A.D. 2026-Mar-28 00:00:00.0000, -3.357043703934595E+08, 1.453365108393376E+08, -1.159157171860851E+06,
2461134.500000000, A.D. 2026-Apr-04 00:00:00.0000, -3.401805847351597E+08, 1.352131366400375E+08, -8.794386073070467E+05,
2461141.500000000, A.D. 2026-Apr-11 00:00:00.0000, -3.443201550128636E+08, 1.249560332706364E+08, -5.988483582180813E+05,
2461148.500000000, A.D. 2026-Apr-18 00:00:00.0000, -3.481196103420617E+08, 1.145755750684619E+08, -3.176653293947503E+05,
2461155.500000000, A.D. 2026-Apr-25 00:00:00.0000, -3.515757503485442E+08, 1.040821946689494E+08, -3.616791377962381E+04,
2461162.500000000, A.D. 2026-May-02 00:00:00.0000, -3.546856442761398E+08, 9.348637919013418E+07, 2.453660906254128E+05,
2461169.500000000, A.D. 2026-May-09 00:00:00.0000, -3.574466301497120E+08, 8.279866638350576E+07, 5.266595352995805E+05,
2461176.500000000, A.D. 2026-May-16 00:00:00.0000, -3.598563136226001E+08, 7.202964086990246E+07, 8.074359244549684E+05,
2461183.500000000, A.D. 2026-May-23 00:00:00.0000, -3.619125664631036E+08, 6.118993146336027E+07, 1.087419446336333E+06,
2461190.500000000, A.D. 2026-May-30 00:00:00.0000, -3.636135267651554E+08, 5.029020988322538E+07, 1.366335249657895E+06,
2461197.500000000, A.D. 2026-Jun-06 00:00:00.0000, -3.649576012085113E+08, 3.934118756402024E+07, 1.643909726900777E+06,
2461204.500000000, A.D. 2026-Jun-13 00:00:00.0000, -3.659434657045346E+08, 2.835361074864134E+07, 1.919870485202992E+06,
2461211.500000000, A.D. 2026-Jun-20 00:00:00.0000, -3.665700649198145E+08, 1.733825677341080E+07, 2.193946291262585E+06,
2461218.500000000, A.D. 2026-Jun-27 00:00:00.0000, -3.668366123696026E+08, 6.305931178886963E+06, 2.465867118879593E+06,
2461225.500000000, A.D. 2026-Jul-04 00:00:00.0000, -3.667425910850610E+08, -4.732535155559217E+06, 2.735364235551323E+06,
2461232.500000000, A.D. 2026-Jul-11 00:00:00.0000, -3.662877546087785E+08, -1.576628900794961E+07, 3.002170293677405E+06,
2461239.500000000, A.D. 2026-Jul-18 00:00:00.0000, -3.654721282331091E+08, -2.678445793365183E+07, 3.266019419805512E+06,
2461246.500000000, A.D. 2026-Jul-25 00:00:00.0000, -3.642960104604837E+08, -3.777615352314261E+07, 3.526647300008973E+06,
2461253.500000000, A.D. 2026-Aug-01 00:00:00.0000, -3.627599746371199E+08, -4.873047486273713E+07, 3.783791253418179E+06,
2461260.500000000, A.D. 2026-Aug-08 00:00:00.0000, -3.608648705419484E+08, -5.963651225259158E+07, 4.037190271787431E+06,
2461267.500000000, A.D. 2026-Aug-15 00:00:00.0000, -3.586118255107171E+08, -7.048335075129046E+07, 4.286585024417192E+06,
2461274.500000000, A.D. 2026-Aug-22 00:00:00.0000, -3.560022458499642E+08, -8.126007234652808E+07, 4.531717998585559E+06,
2461281.500000000, A.D. 2026-Aug-29 00:00:00.0000, -3.530378208239531E+08, -9.195575814726101E+07, 4.772333873592079E+06,
2461288.500000000, A.D. 2026-Sep-05 00:00:00.0000, -3.497205270781324E+08, -1.025594934887477E+08, 5.008179698591374E+06,
2461295.500000000, A.D. 2026-Sep-12 00:00:00.0000, -3.460526310402911E+08, -1.130603734750435E+08, 5.239004853704520E+06,
$$EOE